CUTE-1 (CO-55)          
1 27844U 03031E   25210.91847511  .00000303  00000+0  15093-3 0  9994
2 27844  98.6766 218.5438 0010518  46.7901 313.4154 14.24028740145803
CUBESAT XI-IV (CO-57)   
1 27848U 03031J   25210.96077498  .00000257  00000+0  13259-3 0  9992
2 27848  98.6794 218.5530 0010623  62.5249 297.7008 14.23358957145581
CUBESAT XI-V            
1 28895U 05043F   25210.64745004  .00001711  00000+0  28597-3 0  9997
2 28895  98.2564 355.6441 0015273 144.5791 215.6432 14.71152986 54304
CUTE-1.7+APD II (CO-65) 
1 32785U 08021C   25210.88165779  .00005787  00000+0  41351-3 0  9990
2 32785  97.7875 182.4397 0010732  49.1152 311.1002 15.04835546936646
CANX-2                  
1 32790U 08021H   25210.87159980  .00004975  00000+0  38354-3 0  9999
2 32790  97.8205 181.0141 0011519  49.5165 310.7061 15.02025781936363
SEEDS II (CO-66)        
1 32791U 08021J   25210.89354488  .00013138  00000+0  61753-3 0  9992
2 32791  97.7308 192.0995 0003753  29.3293 330.8150 15.19723781938137
SWISSCUBE               
1 35932U 09051B   25210.68113942  .00001054  00000+0  22268-3 0  9993
2 35932  98.4241 107.8443 0007805 128.4597 231.7304 14.61431955842031
BEESAT-1                
1 35933U 09051C   25210.67583185  .00000889  00000+0  19187-3 0  9994
2 35933  98.4172 108.1035 0006033 138.2411 221.9250 14.60831927842080
ITUPSAT1                
1 35935U 09051E   25210.66551592  .00000814  00000+0  18113-3 0  9998
2 35935  98.4266 107.5920 0008054 149.8240 210.3425 14.59623298841673
TISAT 1                 
1 36799U 10035E   25210.71875972  .00012886  00000+0  64367-3 0  9992
2 36799  98.0544 127.9229 0001316 301.5322  58.5781 15.17624006818570
AEROCUBE 4.5A           
1 38767U 12048K   25210.97417870  .00020676  00000+0  51806-3 0  9992
2 38767  64.6466  57.1485 0096714 262.7451  96.2680 15.35350647322556
STRAND-1                
1 39090U 13009E   25210.46632946  .00000305  00000+0  11748-3 0  9995
2 39090  98.3842  33.8557 0009857 112.7241 247.4988 14.36849440650719
BRITE-AUSTRIA           
1 39091U 13009F   25211.11663338  .00000182  00000+0  76595-4 0  9993
2 39091  98.3901  33.7357 0011307 118.7429 241.4895 14.36331493650827
NEE-01 PEGASO           
1 39151U 13018B   25210.78455260  .00003358  00000+0  34447-3 0  9992
2 39151  98.0796 340.7814 0014212 140.9488 219.2758 14.91067250662611
POPACS 1                
1 39268U 13055D   25210.53088727  .00088503  10200-5  70315-3 0  9993
2 39268  80.9669  25.0279 0219758 170.7473 189.7930 15.45598972622332
POPACS 2                
1 39269U 13055E   25210.86988436  .00014147  00000+0  27203-3 0  9998
2 39269  80.9978 149.3839 0472737 138.9731 224.8074 14.76980151615394
POPACS 3                
1 39270U 13055F   25210.98956426  .00010898  00000+0  27563-3 0  9995
2 39270  81.0030 216.6160 0579341 326.3886  30.1765 14.48944221612484
ZACUBE-1 (TSHEPISOSAT)  
1 39417U 13066B   25210.85604979  .00003282  00000+0  28506-3 0  9996
2 39417  97.7827 167.6245 0042227 243.3381 116.3514 14.97046969632432
WNISAT-1                
1 39423U 13066H   25210.44744161  .00001464  00000+0  27760-3 0  9997
2 39423  97.6820  18.4893 0165561 167.9160 192.6088 14.57186551619713
TRITON-1                
1 39427U 13066M   25211.20545097  .00001913  00000+0  24601-3 0  9993
2 39427  97.8329 123.6990 0093454 201.2847 158.4466 14.79284377626633
GOMX-1                  
1 39430U 13066Q   25211.13949830  .00001803  00000+0  28415-3 0  9997
2 39430  97.6792  66.6920 0133036  31.1738 329.7273 14.67814262622823
CUBEBUG-2 (LO-74)       
1 39440U 13066AA  25210.84013899  .00004665  00000+0  46938-3 0  9991
2 39440  97.8505 155.0652 0062071  15.7448 344.5681 14.90255498628920
NEE-02 KRYSAOR          
1 39441U 13066AB  25210.80317534  .00002742  00000+0  31766-3 0  9998
2 39441  97.8557 148.4238 0069923  46.8937 313.8098 14.84550010628332
FUNCUBE-1 (AO-73)       
1 39444U 13066AE  25210.89050744  .00005775  00000+0  42745-3 0  9995
2 39444  97.7870 173.0239 0040422 213.3504 146.5174 15.02899092631147
UWE-3                   
1 39446U 13066AG  25211.13451849  .00004710  00000+0  44423-3 0  9999
2 39446  97.8255 161.7942 0051405 312.6196  47.0694 14.93271655630043
BRITE-CA1 (TORONTO)     
1 40020U 14033L   25211.08992781  .00001120  00000+0  17933-3 0  9991
2 40020  97.9320 342.0125 0078995 227.3213 132.1322 14.71702112594933
DUCHIFAT-1              
1 40021U 14033M   25210.57562540  .00021383  00000+0  72900-3 0  9999
2 40021  98.0942 229.3214 0010246 137.5081 222.6952 15.30348168605965
NANOSATC-BR1            
1 40024U 14033Q   25211.00407700  .00012302  00000+0  58465-3 0  9998
2 40024  98.0922 212.4713 0004077 196.2654 163.8449 15.19370732605388
QB50P1                  
1 40025U 14033R   25210.87791957  .00007370  00000+0  44340-3 0  9999
2 40025  98.0860 196.2974 0008620 237.9813 122.0578 15.11137335604231
QB50P2                  
1 40032U 14033Y   25210.91926178  .00006470  00000+0  41447-3 0  9992
2 40032  98.0472 184.7860 0008528 177.4752 182.6519 15.08892507603962
PERSEUS-M2              
1 40037U 14033AD  25211.14323753  .00001449  00000+0  14187-3 0  9995
2 40037  97.9562 151.3296 0010792 289.7519  70.2536 14.93887976603173
PERSEUS-M1              
1 40039U 14033AF  25210.79490130  .00001580  00000+0  15418-3 0  9995
2 40039  97.9291 145.7622 0010542 289.6082  70.3999 14.93882331602477
POLYITAN-1              
1 40042U 14033AJ  25210.88812122  .00012733  00000+0  59829-3 0  9994
2 40042  98.1051 204.8394 0010012 175.8139 184.3179 15.19718551604426
TIGRISAT                
1 40043U 14033AK  25210.86695001  .00002009  00000+0  24697-3 0  9998
2 40043  97.7416   4.5495 0052312  52.4973 308.0980 14.83153822597812
AEROCUBE 6A             
1 40045U 14033AM  25211.21422766  .00005791  00000+0  55559-3 0  9998
2 40045  97.6976  18.3408 0042811  13.5664 346.6696 14.92784435598733
AEROCUBE 6B             
1 40046U 14033AN  25210.49876078  .00004629  00000+0  43258-3 0  9999
2 40046  97.6956  16.8470 0041431   8.9212 351.2735 14.93974908598483
CANX-4                  
1 40055U 14034C   25211.17931907  .00000972  00000+0  13503-3 0  9996
2 40055  98.3574  68.9790 0012349 330.6441  29.4075 14.80313837596905
CANX-5                  
1 40056U 14034D   25210.57290981  .00000966  00000+0  13418-3 0  9998
2 40056  98.3577  68.3727 0012383 332.8560  27.2002 14.80326330596815
UKUBE-1                 
1 40074U 14037F   25210.87031774  .00008445  00000+0  58221-3 0  9998
2 40074  98.3957 177.6036 0002573 133.8225 226.3213 15.06111902599917
BRITE-PL2 (HEWELIUSZ)   
1 40119U 14049B   25211.23278151  .00002525  00000+0  24954-3 0  9993
2 40119  97.8929 316.5899 0015952  96.9547 263.3487 14.92745291593479
AEROCUBE 5C             
1 40965U 15058B   25211.19326158  .00001844  00000+0  17123-3 0  9992
2 40965  64.7670 182.4709 0157649 184.0761 175.9080 14.88824751317667
AEROCUBE 7              
1 40966U 15058C   25211.21391770  .00002815  00000+0  23690-3 0  9993
2 40966  64.7631 170.7850 0149142 184.0334 175.9590 14.92178407317871
FOX-1A (AO-85)          
1 40967U 15058D   25211.20089402  .00001819  00000+0  17312-3 0  9996
2 40967  64.7743 197.7599 0153825 178.8255 181.3250 14.88337698 65600
SINOD-D 1               
1 40968U 15058E   25211.21922187  .00002717  00000+0  23245-3 0  9994
2 40968  64.7748 184.5721 0143299 177.7484 182.4307 14.92244303 68550
SNAP-3 ALICE            
1 40970U 15058G   25210.87601300  .00019371  00000+0  77156-3 0  9993
2 40970  64.7645 101.0214 0076832 179.4437 180.6790 15.22571943 67322
LMRST-SAT               
1 40971U 15058H   25211.21593263  .00001541  00000+0  14916-3 0  9996
2 40971  64.7732 193.5075 0156369 180.3321 179.7714 14.88056535 65608
SNAP-3 EDDIE            
1 40972U 15058J   25210.91060650  .00021039  00000+0  81739-3 0  9993
2 40972  64.7569  93.3132 0081697 181.5160 178.5733 15.22998323 69446
PROPCUBE 3              
1 40973U 15058K   25211.17781535  .00002333  00000+0  20395-3 0  9992
2 40973  64.7682 176.3707 0150751 182.3553 177.6869 14.91075743 66732
BISONSAT                
1 40974U 15058L   25210.92722358  .00007759  00000+0  46084-3 0  9993
2 40974  64.7628 128.3368 0112663 180.9515 179.1410 15.06739257 66907
SNAP-3 JIMI             
1 40975U 15058M   25210.90051928  .00004084  00000+0  30474-3 0  9994
2 40975  64.7663 155.8391 0135136 181.6394 178.4298 14.97276463 65887
PROPCUBE 1 (FLORA)      
1 40976U 15058N   25211.21953186  .00001745  00000+0  17268-3 0  9994
2 40976  64.7731 211.3728 0155859 182.1661 177.8795 14.86764204 68356
SINOD-D 3               
1 40977U 15058P   25211.19800354  .00002478  00000+0  22163-3 0  9994
2 40977  64.7714 198.8535 0145495 181.5017 178.5680 14.90591716 66705
HORYU-4                 
1 41340U 16012D   25210.19522438  .00024353  00000+0  61160-3 0  9999
2 41340  30.9958 157.8207 0007249 224.0978 135.9091 15.38730800520439
RAVAN                   
1 41849U 16067B   25210.84482620  .00014203  00000+0  46822-3 0  9994
2 41849  98.0397  64.0350 0010091  65.3496 294.8793 15.31533224478039
CELTEE 1                
1 41850U 16067C   25210.83328017  .00005527  00000+0  29953-3 0  9999
2 41850  98.1045  50.6880 0000382 126.4466 233.6800 15.15056433476996
OPTICUBE 04             
1 41851U 16067D   25210.47388774  .00003330  00000+0  22349-3 0  9998
2 41851  98.0933  40.8324 0017455 125.2994 234.9867 15.07473114476513
AEROCUBE 8D             
1 41852U 16067E   25210.82381948  .00006665  00000+0  32964-3 0  9992
2 41852  98.1078  52.1235 0004548 149.3883 210.7615 15.18190174477052
AEROCUBE 8C             
1 41853U 16067F   25211.08881414  .00007008  00000+0  34477-3 0  9998
2 41853  98.0929  50.1103 0007408  92.3484 267.8596 15.18337477477084
PROMETHEUS 2-1          
1 41854U 16067G   25210.55993949  .00052485  00000+0  84858-3 0  9994
2 41854  98.0711  69.9056 0006800  80.9684 279.2336 15.52662455478152
